NORAD_CAT_ID,OBJECT_NAME,OBJECT_TYPE,EPOCH,MEAN_MOTION,ECCENTRICITY,INCLINATION,RA_OF_ASC_NODE,ARG_OF_PERICENTER,MEAN_ANOMALY,BSTAR,MEAN_MOTION_DOT,MEAN_MOTION_DDOT,TLE_LINE0,TLE_LINE1,TLE_LINE2,SEMIMAJOR_AXIS,PERIOD,APOGEE,PERIGEE,DECAYED
52840.0,STARLINK-4049,PAYLOAD,2023-12-24 11:16:09,15.08853883,0.0001617,53.2175,53.3938,94.796,265.3217,0.0004914,7.544e-05,0.0,0 STARLINK-4049,1 52840U 22062L   23358.46955062  .00007544  00000-0  49140-3 0  9990,2 52840  53.2175  53.3938 0001617  94.7960 265.3217 15.08853883 84563,6917.838,95.437,540.822,538.584,0.0
52840.0,STARLINK-4049,PAYLOAD,2023-12-24 14:26:55,15.08862131,0.0001554,53.2169,52.7945,91.7249,268.3921,0.00090781,0.00014198,0.0,0 STARLINK-4049,1 52840U 22062L   23358.60202822  .00014198  00000-0  90781-3 0  9995,2 52840  53.2169  52.7945 0001554  91.7249 268.3921 15.08862131 84093,6917.813,95.436,540.753,538.603,0.0
52840.0,STARLINK-4049,PAYLOAD,2023-12-25 11:06:56,15.08847344,0.0001804,53.2176,48.9271,78.4863,281.6332,0.00063603,9.851e-05,0.0,0 STARLINK-4049,1 52840U 22062L   23359.46315164  .00009851  00000-0  63603-3 0  9997,2 52840  53.2176  48.9271 0001804  78.4863 281.6332 15.08847344 84714,6917.858,95.437,540.971,538.475,0.0
52840.0,STARLINK-4049,PAYLOAD,2023-12-26 03:00:47,15.0883019,0.0001687,53.2173,45.9551,114.9555,245.1612,0.00034366,5.184e-05,0.0,0 STARLINK-4049,1 52840U 22062L   23360.12555423  .00005184  00000-0  34366-3 0  9995,2 52840  53.2173  45.9551 0001687 114.9555 245.1612 15.08830190 84810,6917.91,95.438,540.942,538.608,0.0
52840.0,STARLINK-4049,PAYLOAD,2023-12-26 10:57:43,15.08838831,0.0001586,53.2166,44.4694,94.6948,265.4225,0.00047097,7.215e-05,0.0,0 STARLINK-4049,1 52840U 22062L   23360.45675625  .00007215  00000-0  47097-3 0  9990,2 52840  53.2166  44.4694 0001586  94.6948 265.4225 15.08838831 84378,6917.884,95.438,540.846,538.652,0.0
52840.0,STARLINK-4049,PAYLOAD,2023-12-27 09:13:07,15.08850006,0.0001863,53.217,40.3094,74.1093,286.0104,0.00059128,9.137e-05,0.0,0 STARLINK-4049,1 52840U 22062L   23361.38411888  .00009137  00000-0  59128-3 0  9995,2 52840  53.2170  40.3094 0001863  74.1093 286.0104 15.08850006 85008,6917.85,95.437,541.004,538.426,0.0
52840.0,STARLINK-4049,PAYLOAD,2023-12-28 02:42:22,15.08846486,0.0001564,53.2164,37.0376,74.1677,285.9488,0.00029988,4.489e-05,0.0,0 STARLINK-4049,1 52840U 22062L   23362.11275839  .00004489  00000-0  29988-3 0  9997,2 52840  53.2164  37.0376 0001564  74.1677 285.9488 15.08846486 85115,6917.861,95.437,540.808,538.644,0.0
52840.0,STARLINK-4049,PAYLOAD,2023-12-28 09:03:54,15.08846,0.0001627,53.2162,35.8473,84.9226,275.1952,0.00023642,3.477e-05,0.0,0 STARLINK-4049,1 52840U 22062L   23362.37771778  .00003477  00000-0  23642-3 0  9995,2 52840  53.2162  35.8473 0001627  84.9226 275.1952 15.08846000 84664,6917.862,95.437,540.853,538.602,0.0
52840.0,STARLINK-4049,PAYLOAD,2023-12-29 02:33:09,15.08838586,0.0001862,53.2164,32.5761,96.0048,264.1157,-7.4608e-05,-1.475e-05,0.0,0 STARLINK-4049,1 52840U 22062L   23363.10635984 -.00001475  00000-0 -74608-4 0  9992,2 52840  53.2164  32.5761 0001862  96.0048 264.1157 15.08838586 85269,6917.885,95.438,541.038,538.462,0.0
52840.0,STARLINK-4049,PAYLOAD,2023-12-29 07:19:18,15.08840843,0.0001467,53.2171,31.684,93.6035,266.5124,-2.4399e-05,-6.76e-06,0.0,0 STARLINK-4049,1 52840U 22062L   23363.30507968 -.00000676  00000-0 -24399-4 0  9998,2 52840  53.2171  31.6840 0001467  93.6035 266.5124 15.08840843 84803,6917.878,95.438,540.758,538.728,0.0
52840.0,STARLINK-4049,PAYLOAD,2023-12-30 02:23:56,15.08846163,0.0001965,53.2178,28.116,111.7231,248.3971,0.00020109,2.914e-05,0.0,0 STARLINK-4049,1 52840U 22062L   23364.09995536  .00002914  00000-0  20109-3 0  9996,2 52840  53.2178  28.1160 0001965 111.7231 248.3971 15.08846163 85416,6917.862,95.437,541.086,538.367,0.0
52840.0,STARLINK-4049,PAYLOAD,2023-12-30 08:45:28,15.08853081,0.0001871,53.2176,26.927,105.9239,254.1959,0.00028538,4.258e-05,0.0,0 STARLINK-4049,1 52840U 22062L   23364.36491170  .00004258  00000-0  28538-3 0  9998,2 52840  53.2176  26.9270 0001871 105.9239 254.1959 15.08853081 84968,6917.84,95.437,541.0,538.411,0.0
52840.0,STARLINK-4049,PAYLOAD,2023-12-31 00:39:20,15.08839166,0.0001947,53.2179,23.9547,113.6463,246.4734,8.6772e-05,1.093e-05,0.0,0 STARLINK-4049,1 52840U 22062L   23365.02731786  .00001093  00000-0  86772-4 0  9991,2 52840  53.2179  23.9547 0001947 113.6463 246.4734 15.08839166 85553,6917.883,95.438,541.095,538.401,0.0
52840.0,STARLINK-4049,PAYLOAD,2023-12-31 07:00:53,15.08827437,0.0001695,53.2173,22.7631,93.5196,266.599,-0.00010727,-1.994e-05,0.0,0 STARLINK-4049,1 52840U 22062L   23365.29228608 -.00001994  00000-0 -10727-3 0  9992,2 52840  53.2173  22.7631 0001695  93.5196 266.5990 15.08827437 85596,6917.919,95.438,540.956,538.611,0.0
52840.0,STARLINK-4049,PAYLOAD,2024-01-01 10:02:26,15.08848296,0.000166,53.2167,17.7074,82.3814,277.7366,0.00033126,4.989e-05,0.0,0 STARLINK-4049,1 52840U 22062L   24001.41836109  .00004989  00000-0  33126-3 0  9998,2 52840  53.2167  17.7074 0001660  82.3814 277.7366 15.08848296 85765,6917.855,95.437,540.868,538.572,0.0
52840.0,STARLINK-4049,PAYLOAD,2024-01-02 00:20:55,15.08838518,0.0001744,53.216,15.0309,75.1071,285.0114,0.00024399,3.597e-05,0.0,0 STARLINK-4049,1 52840U 22062L   24002.01452777  .00003597  00000-0  24399-3 0  9996,2 52840  53.2160  15.0309 0001744  75.1071 285.0114 15.08838518 85857,6917.885,95.438,540.956,538.543,0.0
52840.0,STARLINK-4049,PAYLOAD,2024-01-02 08:17:50,15.08843457,0.000174,53.2165,13.5445,75.8548,284.2637,0.00028021,4.175e-05,0.0,0 STARLINK-4049,1 52840U 22062L   24002.34572601  .00004175  00000-0  28021-3 0  9990,2 52840  53.2165  13.5445 0001740  75.8548 284.2637 15.08843457 85419,6917.87,95.437,540.939,538.531,0.0
52840.0,STARLINK-4049,PAYLOAD,2024-01-03 09:44:00,15.08846723,0.0001686,53.2165,8.786,86.5751,273.5434,0.00010533,1.389e-05,0.0,0 STARLINK-4049,1 52840U 22062L   24003.40556412  .00001389  00000-0  10533-3 0  9993,2 52840  53.2165   8.7860 0001686  86.5751 273.5434 15.08846723 86067,6917.86,95.437,540.891,538.558,0.0
52840.0,STARLINK-4049,PAYLOAD,2024-01-04 00:02:29,15.08839947,0.0001744,53.2158,6.1086,92.1046,268.0146,0.00010022,1.307e-05,0.0,0 STARLINK-4049,1 52840U 22062L   24004.00172846  .00001307  00000-0  10022-3 0  9998,2 52840  53.2158   6.1086 0001744  92.1046 268.0146 15.08839947 86155,6917.881,95.438,540.952,538.539,0.0
52840.0,STARLINK-4049,PAYLOAD,2024-01-04 04:48:38,15.08843664,0.0001769,53.2156,5.2182,83.4947,276.6246,0.00012104,1.639e-05,0.0,0 STARLINK-4049,1 52840U 22062L   24004.20044664  .00001639  00000-0  12104-3 0  9997,2 52840  53.2156   5.2182 0001769  83.4947 276.6246 15.08843664 85695,6917.869,95.437,540.958,538.51,0.0
52840.0,STARLINK-4049,PAYLOAD,2024-01-04 06:24:01,15.08845426,0.0001772,53.2157,4.9209,83.9653,276.1541,0.00013432,1.851e-05,0.0,0 STARLINK-4049,1 52840U 22062L   24004.26668566  .00001851  00000-0  13432-3 0  9997,2 52840  53.2157   4.9209 0001772  83.9653 276.1541 15.08845426 85708,6917.864,95.437,540.955,538.503,0.0
52840.0,STARLINK-4049,PAYLOAD,2024-01-05 04:39:25,15.08840407,0.0001559,53.2181,0.7625,82.8813,277.2356,0.00010424,1.371e-05,0.0,0 STARLINK-4049,1 52840U 22062L   24005.19404959  .00001371  00000-0  10424-3 0  9999,2 52840  53.2181   0.7625 0001559  82.8813 277.2356 15.08840407 86330,6917.879,95.438,540.823,538.666,0.0
52840.0,STARLINK-4049,PAYLOAD,2024-01-05 09:25:35,15.08843863,0.0001621,53.2174,359.8674,97.7332,262.3844,0.00016818,2.39e-05,0.0,0 STARLINK-4049,1 52840U 22062L   24005.39276716  .00002390  00000-0  16818-3 0  9994,2 52840  53.2174 359.8674 0001621  97.7332 262.3844 15.08843863 85879,6917.869,95.437,540.855,538.612,0.0
52840.0,STARLINK-4049,PAYLOAD,2024-01-06 09:16:21,15.08844787,0.0001596,53.2178,355.4045,97.4581,262.6593,7.4463e-05,8.97e-06,0.0,0 STARLINK-4049,1 52840U 22062L   24006.38636546  .00000897  00000-0  74463-4 0  9996,2 52840  53.2178 355.4045 0001596  97.4581 262.6593 15.08844787 86513,6917.866,95.437,540.835,538.627,0.0
52840.0,STARLINK-4049,PAYLOAD,2024-01-07 04:21:01,15.08786518,0.0001937,53.2181,351.8344,106.1064,254.0142,0.00088664,0.0001383,0.0,0 STARLINK-4049,1 52840U 22062L   24007.18126300  .00013830  00000-0  88664-3 0  9995,2 52840  53.2181 351.8344 0001937 106.1064 254.0142 15.08786518 86637,6918.044,95.441,541.249,538.569,0.0
52840.0,STARLINK-4049,PAYLOAD,2024-01-07 21:50:14,15.08837553,0.0001643,53.218,348.5662,101.791,258.3266,8.196e-05,1.017e-05,0.0,0 STARLINK-4049,1 52840U 22062L   24007.90989238  .00001017  00000-0  81960-4 0  9999,2 52840  53.2180 348.5662 0001643 101.7910 258.3266 15.08837553 86255,6917.888,95.438,540.889,538.616,0.0
52840.0,STARLINK-4049,PAYLOAD,2024-01-08 04:11:46,15.0885236,0.00018,53.2182,347.3749,105.9282,254.1909,-0.0001567,-2.782e-05,0.0,0 STARLINK-4049,1 52840U 22062L   24008.17484903 -.00002782  00000-0 -15670-3 0  9994,2 52840  53.2182 347.3749 0001800 105.9282 254.1909 15.08852360 86782,6917.843,95.437,540.953,538.462,0.0
52840.0,STARLINK-4049,PAYLOAD,2024-01-08 07:22:33,15.08841899,0.0001613,53.2184,346.7807,99.4862,260.6312,6.2456e-05,7.06e-06,0.0,0 STARLINK-4049,1 52840U 22062L   24008.30733082  .00000706  00000-0  62456-4 0  9991,2 52840  53.2184 346.7807 0001613  99.4862 260.6312 15.08841899 86319,6917.875,95.437,540.855,538.624,0.0
52840.0,STARLINK-4049,PAYLOAD,2024-01-09 04:02:34,15.08842935,0.0001546,53.2184,342.915,95.162,264.9548,6.319e-05,7.18e-06,0.0,0 STARLINK-4049,1 52840U 22062L   24009.16845226  .00000718  00000-0  63190-4 0  9999,2 52840  53.2184 342.9150 0001546  95.1620 264.9548 15.08842935 86936,6917.871,95.437,540.806,538.667,0.0
52840.0,STARLINK-4049,PAYLOAD,2024-01-09 07:13:20,15.08851269,0.0001553,53.2181,342.3198,96.0095,264.1074,2.9783e-05,1.86e-06,0.0,0 STARLINK-4049,1 52840U 22062L   24009.30092731  .00000186  00000-0  29783-4 0  9999,2 52840  53.2181 342.3198 0001553  96.0095 264.1074 15.08851269 86951,6917.846,95.437,540.785,538.637,0.0
